{
    "links": {
        "self": "http://www.neowsapp.com/rest/v1/neo/3684007?api_key=iIulBulltgU6a56xZRHN4H3l9WmuAYTsLGpBGhQ2"
    },
    "id": "3684007",
    "neo_reference_id": "3684007",
    "name": "(2014 QU296)",
    "designation": "2014 QU296",
    "nasa_jpl_url": "http://ssd.jpl.nasa.gov/sbdb.cgi?sstr=3684007",
    "absolute_magnitude_h": 24.4,
    "estimated_diameter": {
        "kilometers": {
            "estimated_diameter_min": 0.0350392641,
            "estimated_diameter_max": 0.0783501764
        },
        "meters": {
            "estimated_diameter_min": 35.0392641108,
            "estimated_diameter_max": 78.3501764334
        },
        "miles": {
            "estimated_diameter_min": 0.0217723826,
            "estimated_diameter_max": 0.0486845275
        },
        "feet": {
            "estimated_diameter_min": 114.9582192654,
            "estimated_diameter_max": 257.0543928497
        }
    },
    "is_potentially_hazardous_asteroid": false,
    "close_approach_data": [
        {
            "close_approach_date": "2014-08-09",
            "close_approach_date_full": "2014-Aug-09 11:57",
            "epoch_date_close_approach": 1407585420000,
            "relative_velocity": {
                "kilometers_per_second": "6.458080892",
                "kilometers_per_hour": "23249.0912111528",
                "miles_per_hour": "14446.0811472855"
            },
            "miss_distance": {
                "astronomical": "0.1771453034",
                "lunar": "68.9095230226",
                "kilometers": "26500560.069143758",
                "miles": "16466684.4566615404"
            },
            "orbiting_body": "Earth"
        }
    ],
    "orbital_data": {
        "orbit_id": "4",
        "orbit_determination_date": "2017-04-06 08:39:07",
        "first_observation_date": "2014-08-25",
        "last_observation_date": "2014-08-29",
        "data_arc_in_days": 4,
        "observations_used": 11,
        "orbit_uncertainty": "9",
        "minimum_orbit_intersection": ".17677",
        "jupiter_tisserand_invariant": "3.090",
        "epoch_osculation": "2456896.5",
        "eccentricity": ".5665289445585328",
        "semi_major_axis": "2.728701979159013",
        "inclination": "7.627909388826803",
        "ascending_node_longitude": "335.7187386275219",
        "orbital_period": "1646.389492523534",
        "perihelion_distance": "1.182813326891278",
        "perihelion_argument": "336.4028705004908",
        "aphelion_distance": "4.274590631426748",
        "perihelion_time": "2456874.906606766032",
        "mean_anomaly": "4.721617575628058",
        "mean_motion": ".2186602876383785",
        "equinox": "J2000",
        "orbit_class": {
            "orbit_class_type": "AMO",
            "orbit_class_description": "Near-Earth asteroid orbits similar to that of 1221 Amor",
            "orbit_class_range": "1.017 AU < q (perihelion) < 1.3 AU"
        }
    },
    "is_sentry_object": false
}